[{"OBJECT_NAME":"STARLINK-5237","OBJECT_ID":"2022-141AR","EPOCH":"2026-03-08T23:43:12.359136","MEAN_MOTION":15.08834766,"ECCENTRICITY":0.00012983,"INCLINATION":53.2195,"RA_OF_ASC_NODE":357.1519,"ARG_OF_PERICENTER":106.034,"MEAN_ANOMALY":254.0795,"EPHEMERIS_TYPE":0,"CLASSIFICATION_TYPE":"U","NORAD_CAT_ID":54196,"ELEMENT_SET_NO":999,"REV_AT_EPOCH":18589,"BSTAR":-2.0420605e-5,"MEAN_MOTION_DOT":-6.13e-6,"MEAN_MOTION_DDOT":0},{"OBJECT_NAME":"COSMOS 970 DEB","OBJECT_ID":"1977-121BW","EPOCH":"2026-03-09T04:53:14.846784","MEAN_MOTION":14.37544219,"ECCENTRICITY":0.03554347,"INCLINATION":65.6599,"RA_OF_ASC_NODE":142.1451,"ARG_OF_PERICENTER":356.6534,"MEAN_ANOMALY":33.036,"EPHEMERIS_TYPE":0,"CLASSIFICATION_TYPE":"U","NORAD_CAT_ID":20032,"ELEMENT_SET_NO":999,"REV_AT_EPOCH":64092,"BSTAR":0.00097582793,"MEAN_MOTION_DOT":6.002e-5,"MEAN_MOTION_DDOT":0}]
